{"type": "FeatureCollection", "features": [{"type": "Feature", "properties": {"norad_id": 24946, "name": "IRIDIUM 33", "group": "iridium-33-debris", "lat": -35.39822069254461, "lon": 63.96773530449738, "alt_km": 785.2167106152428, "timestamp": "2025-12-16T17:51:11.316908+00:00", "meta": {"OBJECT_NAME": "IRIDIUM 33", "OBJECT_ID": "1997-051C", "EPOCH": "2025-12-15T18:35:22.364160", "MEAN_MOTION": 14.35039593, "ECCENTRICITY": 0.00073898, "INCLINATION": 86.387, "RA_OF_ASC_NODE": 66.9479, "ARG_OF_PERICENTER": 189.767, "MEAN_ANOMALY": 170.3384, "EPHEMERIS_TYPE": 0, "CLASSIFICATION_TYPE": "U", "NORAD_CAT_ID": 24946, "ELEMENT_SET_NO": 999, "REV_AT_EPOCH": 47878, "BSTAR": 0.00010981675, "MEAN_MOTION_DOT": 3.33e-06, "MEAN_MOTION_DDOT": 0}, "tle": {"line1": "1 24946U 97051C   25349.77456440  .00000333  00000+0  10982-3 0  9998", "line2": "2 24946  86.3870  66.9479 0007389 189.7670 170.3384 14.35039593478787"}}, "geometry": {"type": "Point", "coordinates": [63.96773530449738, -35.39822069254461]}}, {"type": "Feature", "properties": {"norad_id": 33773, "name": "IRIDIUM 33 DEB", "group": "iridium-33-debris", "lat": 39.59797461665796, "lon": 61.87737544335021, "alt_km": 745.4856951851107, "timestamp": "2025-12-16T17:51:11.316947+00:00", "meta": {"OBJECT_NAME": "IRIDIUM 33 DEB", "OBJECT_ID": "1997-051L", "EPOCH": "2025-12-15T21:42:07.717536", "MEAN_MOTION": 14.43264072, "ECCENTRICITY": 0.00127761, "INCLINATION": 86.4007, "RA_OF_ASC_NODE": 59.2485, "ARG_OF_PERICENTER": 137.1315, "MEAN_ANOMALY": 223.0884, "EPHEMERIS_TYPE": 0, "CLASSIFICATION_TYPE": "U", "NORAD_CAT_ID": 33773, "ELEMENT_SET_NO": 999, "REV_AT_EPOCH": 88393, "BSTAR": 0.00029336975, "MEAN_MOTION_DOT": 1.008e-05, "MEAN_MOTION_DDOT": 0}, "tle": {"line1": "1 33773U 97051L   25349.90425599  .00001008  00000+0  29337-3 0  9996", "line2": "2 33773  86.4007  59.2485 0012776 137.1315 223.0884 14.43264072883938"}}, "geometry": {"type": "Point", "coordinates": [61.87737544335021, 39.59797461665796]}}, {"type": "Feature", "properties": {"norad_id": 33775, "name": "IRIDIUM 33 DEB", "group": "iridium-33-debris", "lat": 81.59216736809083, "lon": -157.63980194165666, "alt_km": 738.8315294558606, "timestamp": "2025-12-16T17:51:11.316964+00:00", "meta": {"OBJECT_NAME": "IRIDIUM 33 DEB", "OBJECT_ID": "1997-051N", "EPOCH": "2025-12-15T22:14:31.483392", "MEAN_MOTION": 14.4147533, "ECCENTRICITY": 0.00146392, "INCLINATION": 86.3635, "RA_OF_ASC_NODE": 48.1931, "ARG_OF_PERICENTER": 144.9355, "MEAN_ANOMALY": 35.1176, "EPHEMERIS_TYPE": 0, "CLASSIFICATION_TYPE": "U", "NORAD_CAT_ID": 33775, "ELEMENT_SET_NO": 999, "REV_AT_EPOCH": 88186, "BSTAR": 0.00029905843, "MEAN_MOTION_DOT": 9.91e-06, "MEAN_MOTION_DDOT": 0}, "tle": {"line1": "1 33775U 97051N   25349.92675328  .00000991  00000+0  29906-3 0  9999", "line2": "2 33775  86.3635  48.1931 0014639 144.9355  35.1176 14.41475330881864"}}, "geometry": {"type": "Point", "coordinates": [-157.63980194165666, 81.59216736809083]}}, {"type": "Feature", "properties": {"norad_id": 33776, "name": "IRIDIUM 33 DEB", "group": "iridium-33-debris", "lat": -78.47499801596732, "lon": 61.1311007005317, "alt_km": 774.2398702724777, "timestamp": "2025-12-16T17:51:11.316977+00:00", "meta": {"OBJECT_NAME": "IRIDIUM 33 DEB", "OBJECT_ID": "1997-051P", "EPOCH": "2025-12-15T19:23:17.167776", "MEAN_MOTION": 14.38240494, "ECCENTRICITY": 0.00147154, "INCLINATION": 86.4039, "RA_OF_ASC_NODE": 79.4876, "ARG_OF_PERICENTER": 180.2609, "MEAN_ANOMALY": 297.1088, "EPHEMERIS_TYPE": 0, "CLASSIFICATION_TYPE": "U", "NORAD_CAT_ID": 33776, "ELEMENT_SET_NO": 999, "REV_AT_EPOCH": 88126, "BSTAR": 0.00026808097, "MEAN_MOTION_DOT": 8.35e-06, "MEAN_MOTION_DDOT": 0}, "tle": {"line1": "1 33776U 97051P   25349.80783759  .00000835  00000+0  26808-3 0  9990", "line2": "2 33776  86.4039  79.4876 0014715 180.2609 297.1088 14.38240494881262"}}, "geometry": {"type": "Point", "coordinates": [61.1311007005317, -78.47499801596732]}}, {"type": "Feature", "properties": {"norad_id": 33777, "name": "IRIDIUM 33 DEB", "group": "iridium-33-debris", "lat": -41.08057818404249, "lon": 30.29737843470803, "alt_km": 713.7425442132972, "timestamp": "2025-12-16T17:51:11.316990+00:00", "meta": {"OBJECT_NAME": "IRIDIUM 33 DEB", "OBJECT_ID": "1997-051Q", "EPOCH": "2025-12-15T13:59:42.150336", "MEAN_MOTION": 14.55637018, "ECCENTRICITY": 0.00053352, "INCLINATION": 86.3788, "RA_OF_ASC_NODE": 33.9668, "ARG_OF_PERICENTER": 235.7351, "MEAN_ANOMALY": 124.3352, "EPHEMERIS_TYPE": 0, "CLASSIFICATION_TYPE": "U", "NORAD_CAT_ID": 33777, "ELEMENT_SET_NO": 999, "REV_AT_EPOCH": 88575, "BSTAR": 0.00059945783, "MEAN_MOTION_DOT": 2.637e-05, "MEAN_MOTION_DDOT": 0}, "tle": {"line1": "1 33777U 97051Q   25349.58312674  .00002637  00000+0  59946-3 0  9991", "line2": "2 33777  86.3788  33.9668 0005335 235.7351 124.3352 14.55637018885759"}}, "geometry": {"type": "Point", "coordinates": [30.29737843470803, -41.08057818404249]}}, {"type": "Feature", "properties": {"norad_id": 33850, "name": "IRIDIUM 33 DEB", "group": "iridium-33-debris", "lat": 85.9270948142044, "lon": 92.42230231010183, "alt_km": 739.505879365599, "timestamp": "2025-12-16T17:51:11.317003+00:00", "meta": {"OBJECT_NAME": "IRIDIUM 33 DEB", "OBJECT_ID": "1997-051T", "EPOCH": "2025-12-15T20:35:54.826944", "MEAN_MOTION": 14.42152489, "ECCENTRICITY": 0.00125282, "INCLINATION": 86.3416, "RA_OF_ASC_NODE": 28.8388, "ARG_OF_PERICENTER": 151.5907, "MEAN_ANOMALY": 21.8219, "EPHEMERIS_TYPE": 0, "CLASSIFICATION_TYPE": "U", "NORAD_CAT_ID": 33850, "ELEMENT_SET_NO": 999, "REV_AT_EPOCH": 88197, "BSTAR": 0.00028672748, "MEAN_MOTION_DOT": 9.64e-06, "MEAN_MOTION_DDOT": 0}, "tle": {"line1": "1 33850U 97051T   25349.85827346  .00000964  00000+0  28673-3 0  9994", "line2": "2 33850  86.3416  28.8388 0012528 151.5907  21.8219 14.42152489881978"}}, "geometry": {"type": "Point", "coordinates": [92.42230231010183, 85.9270948142044]}}, {"type": "Feature", "properties": {"norad_id": 33853, "name": "IRIDIUM 33 DEB", "group": "iridium-33-debris", "lat": -30.915651314230313, "lon": 170.45763527745717, "alt_km": 755.8443278954664, "timestamp": "2025-12-16T17:51:11.317016+00:00", "meta": {"OBJECT_NAME": "IRIDIUM 33 DEB", "OBJECT_ID": "1997-051W", "EPOCH": "2025-12-15T12:14:47.907744", "MEAN_MOTION": 13.99079468, "ECCENTRICITY": 0.02070108, "INCLINATION": 85.9998, "RA_OF_ASC_NODE": 348.5966, "ARG_OF_PERICENTER": 227.2361, "MEAN_ANOMALY": 254.6583, "EPHEMERIS_TYPE": 0, "CLASSIFICATION_TYPE": "U", "NORAD_CAT_ID": 33853, "ELEMENT_SET_NO": 999, "REV_AT_EPOCH": 85384, "BSTAR": 0.0014178207, "MEAN_MOTION_DOT": 2.481e-05, "MEAN_MOTION_DDOT": 0}, "tle": {"line1": "1 33853U 97051W   25349.51027671  .00002481  00000+0  14178-2 0  9993", "line2": "2 33853  85.9998 348.5966 0207010 227.2361 254.6583 13.99079468853843"}}, "geometry": {"type": "Point", "coordinates": [170.45763527745717, -30.915651314230313]}}, {"type": "Feature", "properties": {"norad_id": 33860, "name": "IRIDIUM 33 DEB", "group": "iridium-33-debris", "lat": 25.482783326558486, "lon": 27.19335227946167, "alt_km": 664.9457885048205, "timestamp": "2025-12-16T17:51:11.317028+00:00", "meta": {"OBJECT_NAME": "IRIDIUM 33 DEB", "OBJECT_ID": "1997-051AD", "EPOCH": "2025-12-15T21:15:56.848032", "MEAN_MOTION": 14.67410021, "ECCENTRICITY": 0.00070173, "INCLINATION": 86.3836, "RA_OF_ASC_NODE": 25.8456, "ARG_OF_PERICENTER": 346.6371, "MEAN_ANOMALY": 190.3785, "EPHEMERIS_TYPE": 0, "CLASSIFICATION_TYPE": "U", "NORAD_CAT_ID": 33860, "ELEMENT_SET_NO": 999, "REV_AT_EPOCH": 88768, "BSTAR": 0.00078372446, "MEAN_MOTION_DOT": 4.454e-05, "MEAN_MOTION_DDOT": 0}, "tle": {"line1": "1 33860U 97051AD  25349.88607463  .00004454  00000+0  78372-3 0  9993", "line2": "2 33860  86.3836  25.8456 0007017 346.6371 190.3785 14.67410021887687"}}, "geometry": {"type": "Point", "coordinates": [27.19335227946167, 25.482783326558486]}}, {"type": "Feature", "properties": {"norad_id": 33862, "name": "IRIDIUM 33 DEB", "group": "iridium-33-debris", "lat": 86.02352854559737, "lon": 151.16710210408897, "alt_km": 624.7127050852769, "timestamp": "2025-12-16T17:51:11.317040+00:00", "meta": {"OBJECT_NAME": "IRIDIUM 33 DEB", "OBJECT_ID": "1997-051AF", "EPOCH": "2025-12-15T20:58:50.715840", "MEAN_MOTION": 14.69530594, "ECCENTRICITY": 0.00531658, "INCLINATION": 86.4093, "RA_OF_ASC_NODE": 36.1485, "ARG_OF_PERICENTER": 58.6978, "MEAN_ANOMALY": 114.7438, "EPHEMERIS_TYPE": 0, "CLASSIFICATION_TYPE": "U", "NORAD_CAT_ID": 33862, "ELEMENT_SET_NO": 999, "REV_AT_EPOCH": 88869, "BSTAR": 0.00090079896, "MEAN_MOTION_DOT": 5.485e-05, "MEAN_MOTION_DDOT": 0}, "tle": {"line1": "1 33862U 97051AF  25349.87419810  .00005485  00000+0  90080-3 0  9996", "line2": "2 33862  86.4093  36.1485 0053165  58.6978 114.7438 14.69530594888697"}}, "geometry": {"type": "Point", "coordinates": [151.16710210408897, 86.02352854559737]}}, {"type": "Feature", "properties": {"norad_id": 33866, "name": "IRIDIUM 33 DEB", "group": "iridium-33-debris", "lat": -61.12140329135202, "lon": -81.92068109115938, "alt_km": 817.6075349936182, "timestamp": "2025-12-16T17:51:11.317051+00:00", "meta": {"OBJECT_NAME": "IRIDIUM 33 DEB", "OBJECT_ID": "1997-051AK", "EPOCH": "2025-12-15T19:24:47.416032", "MEAN_MOTION": 14.25285858, "ECCENTRICITY": 0.01147275, "INCLINATION": 86.2999, "RA_OF_ASC_NODE": 91.7371, "ARG_OF_PERICENTER": 151.6501, "MEAN_ANOMALY": 333.8075, "EPHEMERIS_TYPE": 0, "CLASSIFICATION_TYPE": "U", "NORAD_CAT_ID": 33866, "ELEMENT_SET_NO": 999, "REV_AT_EPOCH": 86854, "BSTAR": 0.00049831451, "MEAN_MOTION_DOT": 1.276e-05, "MEAN_MOTION_DDOT": 0}, "tle": {"line1": "1 33866U 97051AK  25349.80888213  .00001276  00000+0  49831-3 0  9992", "line2": "2 33866  86.2999  91.7371 0114727 151.6501 333.8075 14.25285858868548"}}, "geometry": {"type": "Point", "coordinates": [-81.92068109115938, -61.12140329135202]}}]}